{
"type": "FeatureCollection",
"name": "rhtp_nm_regions_combined",
"crs": { "type": "name", "properties": { "name": "urn:ogc:def:crs:EPSG::3857" } },
"xy_coordinate_resolution": 1e-10,
"features": [
{"type":"Feature","properties":{"layer":"RHTP Region 1 — new_mexico_counties"},"geometry":{"type":"MultiPolygon","coordinates":[[[[-11980779.7458501998,4412805.1351468787],[-11980578.3115507979,4331072.1847868171],[-11898097.9495557044,4331141.7302429024],[-11897500.5956507027,4301493.1600219607],[-11827512.6548964959,4301970.8595192907],[-11827398.8413456026,4297222.1384395137],[-11829298.7883415986,4297213.71560062],[-11829443.1659286991,4298778.551796441],[-11833429.9099847004,4298828.8895305227],[-11833408.6766297016,4297392.0859306101],[-11835181.2177289017,4297379.4728550417],[-11835359.5732974987,4295574.0301767085],[-11842380.962845901,4295704.5937012974],[-11842470.9883497022,4297017.8686241237],[-11844242.6932629999,4297065.5972699197],[-11844200.1458178014,4280346.9205106404],[-11845486.0209577978,4279571.0356146069],[-11845046.0545391962,4277191.3549422277],[-11840897.1192530002,4276455.5379724875],[-11839755.6274670046,4276611.0929053072],[-11839043.0586789977,4279458.4513437487],[-11834635.9322548006,4278900.0647885418],[-11830880.2234790009,4275491.482617652],[-11827262.9755542018,4269595.4766967632],[-11826029.5782878045,4193947.2459599483],[-11931309.1081640981,4194536.8285590401],[-11917231.2438603006,4158917.7836999618],[-11935445.840902904,4158953.4111862429],[-11933931.1276334003,4111484.5095179216],[-11932945.9161083009,4111133.6731442227],[-11932940.795190502,4107433.8960078526],[-11991158.5140467994,4107533.3953835918],[-12047832.9624434002,4107401.2830990185],[-12139240.5027507022,4108543.2115458599],[-12139016.5260328986,4157719.449291097],[-12139150.7425197009,4300162.3507644422],[-12139221.2762419004,4438638.5793233179],[-12063968.5014707018,4439033.1362327691],[-11963779.5560038984,4438936.2773356484],[-11956917.8548946958,4438761.92055446],[-11960327.0367009006,4434394.362189712],[-11961682.5401754975,4426080.476294701],[-11977198.1194446981,4416915.4963269113],[-11978785.5116857011,4413469.7510693427],[-11980779.7458501998,4412805.1351468787]]]]}},
{"type":"Feature","properties":{"layer":"RHTP Region 2 — new_mexico_counties"},"geometry":{"type":"MultiPolygon","coordinates":[[[[-11898981.578911202,4438979.0817249417],[-11895739.8130553011,4437643.5478071272],[-11852428.5264586024,4437922.6479963977],[-11798975.4813496023,4438032.1111084623],[-11767968.5376016013,4438348.6009483002],[-11712267.7728983033,4438076.0020834403],[-11712700.0579402,4433730.6374458671],[-11709058.1511815991,4425498.1990158977],[-11712736.515645301,4418571.1293413322],[-11711282.4691043999,4414916.4518153798],[-11712479.1318592038,4409096.395498069],[-11710712.5593972988,4403729.4246431477],[-11714306.0308086015,4400277.8763028216],[-11717247.1676505003,4401904.9271808816],[-11720843.9780384973,4401539.8075522874],[-11722694.653501397,4398396.689314276],[-11726113.131388098,4397645.0453485129],[-11728050.4126427043,4395513.3940336173],[-11726229.5918997973,4389776.83846376],[-11728403.0062851962,4386459.3811497875],[-11726261.9897783045,4380777.9292033212],[-11727620.0767790023,4377055.7011337606],[-11723013.5632692017,4369272.9696371108],[-11726109.3368340973,4363484.8798682587],[-11723419.6324415002,4358986.0715506831],[-11723281.3734283987,4341476.7470433684],[-11726918.1304352004,4337916.5652286373],[-11735019.6703255028,4332205.7122140201],[-11734185.6873451024,4329106.061581824],[-11731976.6629741006,4327082.7740888298],[-11731417.8716560993,4320176.301275407],[-11735364.6633265018,4314881.1844853899],[-11736622.5291223023,4310175.5484390594],[-11741225.8189912997,4307469.0727838194],[-11744663.8924619965,4303657.5225030314],[-11748773.7173152994,4298746.3309228225],[-11750579.3425421044,4297874.1373049868],[-11758407.3977426011,4300273.9949226081],[-11760755.7364510018,4296609.4260278931],[-11767700.5140707977,4297160.8129108902],[-11767929.0061924011,4285248.8555760514],[-11766347.5825886987,4254795.7667913288],[-11767177.3558056019,4254512.9837971767],[-11767606.1230998989,4204678.3726134971],[-11766913.9399474002,4204716.3591437424],[-11767057.3429455012,4170327.6484299181],[-11825917.6677806973,4170142.7789582801],[-11826029.5782878045,4193947.2459599483],[-11827262.9755542018,4269595.4766967632],[-11830880.2234790009,4275491.482617652],[-11834635.9322548006,4278900.0647885418],[-11839043.0586789977,4279458.4513437487],[-11839755.6274670046,4276611.0929053072],[-11840897.1192530002,4276455.5379724875],[-11845046.0545391962,4277191.3549422277],[-11845486.0209577978,4279571.0356146069],[-11844200.1458178014,4280346.9205106404],[-11844242.6932629999,4297065.5972699197],[-11842470.9883497022,4297017.8686241237],[-11842380.962845901,4295704.5937012974],[-11835359.5732974987,4295574.0301767085],[-11835181.2177289017,4297379.4728550417],[-11833408.6766297016,4297392.0859306101],[-11833429.9099847004,4298828.8895305227],[-11829443.1659286991,4298778.551796441],[-11829298.7883415986,4297213.71560062],[-11827398.8413456026,4297222.1384395137],[-11827512.6548964959,4301970.8595192907],[-11897500.5956507027,4301493.1600219607],[-11898097.9495557044,4331141.7302429024],[-11980578.3115507979,4331072.1847868171],[-11980779.7458501998,4412805.1351468787],[-11978785.5116857011,4413469.7510693427],[-11977198.1194446981,4416915.4963269113],[-11961682.5401754975,4426080.476294701],[-11960327.0367009006,4434394.362189712],[-11956917.8548946958,4438761.92055446],[-11898981.578911202,4438979.0817249417]]]]}},
{"type":"Feature","properties":{"layer":"RHTP Region 3 — new_mexico_counties"},"geometry":{"type":"MultiPolygon","coordinates":[[[[-11826029.5782878045,4193947.2459599483],[-11825917.6677806973,4170142.7789582801],[-11767057.3429455012,4170327.6484299181],[-11719452.9337798972,4170320.6184733687],[-11719464.5308132973,4111831.1314853709],[-11722140.7293618992,4111811.5182277393],[-11721938.4415763021,4075947.2944952021],[-11721771.0486931987,4064481.2484276192],[-11791245.1330294963,4064544.0984122613],[-11845223.2971154973,4064851.0544576822],[-11845163.4492723979,4089489.3058699607],[-11850210.8980230987,4088704.0297674779],[-11884837.0388740003,4101595.7389259594],[-11896947.5192308016,4107214.5732162232],[-11932940.795190502,4107433.8960078526],[-11932945.9161083009,4111133.6731442227],[-11933931.1276334003,4111484.5095179216],[-11935445.840902904,4158953.4111862429],[-11917231.2438603006,4158917.7836999618],[-11931309.1081640981,4194536.8285590401],[-11826029.5782878045,4193947.2459599483]]]]}},
{"type":"Feature","properties":{"layer":"RHTP Region 4 — new_mexico_counties"},"geometry":{"type":"MultiPolygon","coordinates":[[[[-11465652.5733069982,4438901.0259424392],[-11465618.2320171967,4368583.975378789],[-11468945.1042971034,4368476.191321387],[-11468584.5640051998,4308338.1507202107],[-11468424.7429295983,4265223.6828186493],[-11468389.3059478998,4248958.7260908578],[-11468818.6902898028,4187996.9873456014],[-11468718.5152192004,4159095.9011610798],[-11495945.8929427024,4158900.557573278],[-11496400.2763595022,4147378.5551077235],[-11507795.6851372998,4147002.1929681776],[-11508129.4559468962,4135176.5363711668],[-11519569.8688264973,4134852.7981770309],[-11519563.9001892023,4121172.0792853977],[-11543382.2575767972,4120974.0877358695],[-11543012.7845127955,4109873.9196676929],[-11547060.6278072987,4109850.6386793917],[-11570404.2046090011,4109814.1514496794],[-11590380.2877965998,4109863.4736931734],[-11590068.6903303005,4133799.1919821692],[-11613776.8038157988,4133683.2759459275],[-11613833.6529232003,4122537.3147277697],[-11625755.6627453994,4122063.7297995123],[-11625746.187894199,4110741.0464967932],[-11675536.7445379999,4110469.5314362631],[-11675249.3618618976,4075947.4691191567],[-11721938.4415763021,4075947.2944952021],[-11722140.7293618992,4111811.5182277393],[-11719464.5308132973,4111831.1314853709],[-11719452.9337798972,4170320.6184733687],[-11767057.3429455012,4170327.6484299181],[-11766913.9399474002,4204716.3591437424],[-11767606.1230998989,4204678.3726134971],[-11767177.3558056019,4254512.9837971767],[-11766347.5825886987,4254795.7667913288],[-11767929.0061924011,4285248.8555760514],[-11767700.5140707977,4297160.8129108902],[-11760755.7364510018,4296609.4260278931],[-11758407.3977426011,4300273.9949226081],[-11750579.3425421044,4297874.1373049868],[-11748773.7173152994,4298746.3309228225],[-11744663.8924619965,4303657.5225030314],[-11741225.8189912997,4307469.0727838194],[-11736622.5291223023,4310175.5484390594],[-11735364.6633265018,4314881.1844853899],[-11731417.8716560993,4320176.301275407],[-11731976.6629741006,4327082.7740888298],[-11734185.6873451024,4329106.061581824],[-11735019.6703255028,4332205.7122140201],[-11726918.1304352004,4337916.5652286373],[-11723281.3734283987,4341476.7470433684],[-11723419.6324415002,4358986.0715506831],[-11726109.3368340973,4363484.8798682587],[-11723013.5632692017,4369272.9696371108],[-11727620.0767790023,4377055.7011337606],[-11726261.9897783045,4380777.9292033212],[-11728403.0062851962,4386459.3811497875],[-11726229.5918997973,4389776.83846376],[-11728050.4126427043,4395513.3940336173],[-11726113.131388098,4397645.0453485129],[-11722694.653501397,4398396.689314276],[-11720843.9780384973,4401539.8075522874],[-11717247.1676505003,4401904.9271808816],[-11714306.0308086015,4400277.8763028216],[-11710712.5593972988,4403729.4246431477],[-11712479.1318592038,4409096.395498069],[-11711282.4691043999,4414916.4518153798],[-11712736.515645301,4418571.1293413322],[-11709058.1511815991,4425498.1990158977],[-11712700.0579402,4433730.6374458671],[-11712267.7728983033,4438076.0020834403],[-11704818.3830397986,4438160.0300895311],[-11576518.4939288013,4438335.8787899604],[-11474575.5418557003,4439073.36319008],[-11465652.5733069982,4438901.0259424392]]]]}},
{"type":"Feature","properties":{"layer":"RHTP Region 5 — new_mexico_counties"},"geometry":{"type":"MultiPolygon","coordinates":[[[[-12139240.5027507022,4108543.2115458599],[-12047832.9624434002,4107401.2830990185],[-11991158.5140467994,4107533.3953835918],[-11932940.795190502,4107433.8960078526],[-11896947.5192308016,4107214.5732162232],[-11884837.0388740003,4101595.7389259594],[-11850210.8980230987,4088704.0297674779],[-11845163.4492723979,4089489.3058699607],[-11845223.2971154973,4064851.0544576822],[-11791245.1330294963,4064544.0984122613],[-11790285.5664607976,4007137.5511216922],[-11804211.1353619993,4006844.5807090211],[-11804334.3314954042,3983399.4721688721],[-11840050.2647765968,3984745.8354253592],[-11840220.9966365006,3958974.9786442583],[-11840052.6925990991,3947497.3033318077],[-11836380.2102706973,3947456.137706737],[-11835864.2778050043,3903218.9216370676],[-11835611.9457351025,3890638.4005380706],[-11840494.7119981982,3890229.9156784019],[-11841987.9035728015,3763408.6986052473],[-11869287.7065285966,3763453.5524161896],[-11872230.5849438999,3760728.8710968206],[-11870287.3235183973,3759664.6202406227],[-11870414.6313796043,3752040.3197911866],[-11871564.5830600969,3749562.5549839516],[-11868452.5990222991,3742947.6150840623],[-11868326.0062441994,3739422.2445145072],[-11859924.5351226013,3735292.4462304115],[-11942752.0699689016,3735132.3915839586],[-12045131.2400410976,3735370.7511181808],[-12045954.2142016012,3677486.0582687217],[-12138902.3376400955,3677433.8435359793],[-12139334.288207598,3821476.734460088],[-12139540.3301796019,3866079.4033873202],[-12139449.0013792031,3922567.9327852186],[-12139429.3423604015,3999741.7470980524],[-12139240.5027507022,4108543.2115458599]]]]}},
{"type":"Feature","properties":{"layer":"RHTP Region 6 — new_mexico_counties"},"geometry":{"type":"MultiPolygon","coordinates":[[[[-11468429.7196772974,4129326.518623489],[-11469207.7070365995,4070210.0685220426],[-11469609.8720858023,4005486.2728827917],[-11470219.6707436014,3970653.2938044323],[-11470705.5351178013,3945562.8358214893],[-11471399.0446341969,3889151.9196846685],[-11472588.7468622997,3831175.8714668979],[-11472101.423487898,3774488.7208897793],[-11472410.1433212999,3763576.1532322923],[-11502926.7822597027,3763872.6539398404],[-11547108.9189845994,3764128.2973950077],[-11575153.9481129013,3764100.2383699571],[-11579375.1759950016,3764282.4939902425],[-11671967.5109841004,3763739.2171769724],[-11679897.5404965971,3763885.8603291865],[-11800226.7441601977,3763528.266071233],[-11841987.9035728015,3763408.6986052473],[-11840494.7119981982,3890229.9156784019],[-11835611.9457351025,3890638.4005380706],[-11835864.2778050043,3903218.9216370676],[-11836380.2102706973,3947456.137706737],[-11840052.6925990991,3947497.3033318077],[-11840220.9966365006,3958974.9786442583],[-11840050.2647765968,3984745.8354253592],[-11804334.3314954042,3983399.4721688721],[-11804211.1353619993,4006844.5807090211],[-11790285.5664607976,4007137.5511216922],[-11791245.1330294963,4064544.0984122613],[-11721771.0486931987,4064481.2484276192],[-11721938.4415763021,4075947.2944952021],[-11675249.3618618976,4075947.4691191567],[-11675536.7445379999,4110469.5314362631],[-11625746.187894199,4110741.0464967932],[-11625755.6627453994,4122063.7297995123],[-11613833.6529232003,4122537.3147277697],[-11613776.8038157988,4133683.2759459275],[-11590068.6903303005,4133799.1919821692],[-11590380.2877965998,4109863.4736931734],[-11570404.2046090011,4109814.1514496794],[-11547060.6278072987,4109850.6386793917],[-11543012.7845127955,4109873.9196676929],[-11543382.2575767972,4120974.0877358695],[-11519563.9001892023,4121172.0792853977],[-11519569.8688264973,4134852.7981770309],[-11508129.4559468962,4135176.5363711668],[-11507795.6851372998,4147002.1929681776],[-11496400.2763595022,4147378.5551077235],[-11495945.8929427024,4158900.557573278],[-11468718.5152192004,4159095.9011610798],[-11468429.7196772974,4129326.518623489]]]]}}
]
}
